{"type": "FeatureCollection", "features": [ {"type": "Feature", "properties": {"norad_id": 38166, "name": "FENGYUN 1C DEB", "group": "fengyun-1c-debris", "lat": 80.20441193866147, "lon": 12.719728062234939, "alt_km": 744.6888921584296, "timestamp": "2025-12-03T20:47:58.513997+00:00", "meta": {"OBJECT_NAME": "FENGYUN 1C DEB", "OBJECT_ID": "1999-025ERP", "EPOCH": "2025-12-02T05:47:50.624160", "MEAN_MOTION": 14.30703931, "ECCENTRICITY": 0.0053537, "INCLINATION": 99.0784, "RA_OF_ASC_NODE": 78.8573, "ARG_OF_PERICENTER": 76.5372, "MEAN_ANOMALY": 284.1768, "EPHEMERIS_TYPE": 0, "CLASSIFICATION_TYPE": "U", "NORAD_CAT_ID": 38166, "ELEMENT_SET_NO": 999, "REV_AT_EPOCH": 63622, "BSTAR": 0.0032633, "MEAN_MOTION_DOT": 8.633e-05, "MEAN_MOTION_DDOT": 0}, "tle": {"line1": "1 38166U 99025ERP 25336.24155815  .00008633  00000+0  32633-2 0  9997", "line2": "2 38166  99.0784  78.8573 0053537  76.5372 284.1768 14.30703931636220"}}, "geometry": {"type": "Point", "coordinates": [12.719728062234939, 80.20441193866147]}}, {"type": "Feature", "properties": {"norad_id": 38169, "name": "FENGYUN 1C DEB", "group": "fengyun-1c-debris", "lat": 17.69774545669699, "lon": -51.71041654814211, "alt_km": 652.507411359059, "timestamp": "2025-12-03T20:47:58.514007+00:00", "meta": {"OBJECT_NAME": "FENGYUN 1C DEB", "OBJECT_ID": "1999-025ERS", "EPOCH": "2025-11-22T03:51:43.920000", "MEAN_MOTION": 14.70462609, "ECCENTRICITY": 0.00311315, "INCLINATION": 98.9783, "RA_OF_ASC_NODE": 298.2991, "ARG_OF_PERICENTER": 127.7379, "MEAN_ANOMALY": 232.6652, "EPHEMERIS_TYPE": 0, "CLASSIFICATION_TYPE": "U", "NORAD_CAT_ID": 38169, "ELEMENT_SET_NO": 999, "REV_AT_EPOCH": 60966, "BSTAR": 0.0026738914, "MEAN_MOTION_DOT": 0.00016302, "MEAN_MOTION_DDOT": 0}, "tle": {"line1": "1 38169U 99025ERS 25326.16092500  .00016302  00000+0  26739-2 0  9993", "line2": "2 38169  98.9783 298.2991 0031131 127.7379 232.6652 14.70462609609660"}}, "geometry": {"type": "Point", "coordinates": [-51.71041654814211, 17.69774545669699]}}, {"type": "Feature", "properties": {"norad_id": 38173, "name": "FENGYUN 1C DEB", "group": "fengyun-1c-debris", "lat": -22.244390807024175, "lon": -118.61283190489316, "alt_km": 883.0118693662807, "timestamp": "2025-12-03T20:47:58.514017+00:00", "meta": {"OBJECT_NAME": "FENGYUN 1C DEB", "OBJECT_ID": "1999-025ERW", "EPOCH": "2025-11-24T11:18:51.497568", "MEAN_MOTION": 14.37024249, "ECCENTRICITY": 0.01622994, "INCLINATION": 98.9991, "RA_OF_ASC_NODE": 227.8463, "ARG_OF_PERICENTER": 166.3393, "MEAN_ANOMALY": 194.2263, "EPHEMERIS_TYPE": 0, "CLASSIFICATION_TYPE": "U", "NORAD_CAT_ID": 38173, "ELEMENT_SET_NO": 999, "REV_AT_EPOCH": 60381, "BSTAR": 0.00095115, "MEAN_MOTION_DOT": 3.231e-05, "MEAN_MOTION_DDOT": 0}, "tle": {"line1": "1 38173U 99025ERW 25328.47142937  .00003231  00000+0  95115-3 0  9996", "line2": "2 38173  98.9991 227.8463 0162299 166.3393 194.2263 14.37024249603812"}}, "geometry": {"type": "Point", "coordinates": [-118.61283190489316, -22.244390807024175]}}, {"type": "Feature", "properties": {"norad_id": 38491, "name": "FENGYUN 1C DEB", "group": "fengyun-1c-debris", "lat": 32.249071177334, "lon": -21.365784749188446, "alt_km": 747.3200628554077, "timestamp": "2025-12-03T20:47:58.514028+00:00", "meta": {"OBJECT_NAME": "FENGYUN 1C DEB", "OBJECT_ID": "1999-025ESA", "EPOCH": "2025-11-07T18:37:17.530176", "MEAN_MOTION": 13.96213514, "ECCENTRICITY": 0.02268827, "INCLINATION": 98.9363, "RA_OF_ASC_NODE": 318.985, "ARG_OF_PERICENTER": 122.5823, "MEAN_ANOMALY": 239.7468, "EPHEMERIS_TYPE": 0, "CLASSIFICATION_TYPE": "U", "NORAD_CAT_ID": 38491, "ELEMENT_SET_NO": 999, "REV_AT_EPOCH": 65972, "BSTAR": 0.00032180703, "MEAN_MOTION_DOT": 5.09e-06, "MEAN_MOTION_DDOT": 0}, "tle": {"line1": "1 38491U 99025ESA 25311.77589734  .00000509  00000+0  32181-3 0  9993", "line2": "2 38491  98.9363 318.9850 0226882 122.5823 239.7468 13.96213514659723"}}, "geometry": {"type": "Point", "coordinates": [-21.365784749188446, 32.249071177334]}}, {"type": "Feature", "properties": {"norad_id": 38492, "name": "FENGYUN 1C DEB", "group": "fengyun-1c-debris", "lat": 39.24245152603654, "lon": 43.13747661776488, "alt_km": 1028.7655419450011, "timestamp": "2025-12-03T20:47:58.514038+00:00", "meta": {"OBJECT_NAME": "FENGYUN 1C DEB", "OBJECT_ID": "1999-025ESB", "EPOCH": "2025-11-07T22:24:32.618304", "MEAN_MOTION": 13.93045648, "ECCENTRICITY": 0.02334575, "INCLINATION": 98.6097, "RA_OF_ASC_NODE": 26.0841, "ARG_OF_PERICENTER": 245.4391, "MEAN_ANOMALY": 112.2279, "EPHEMERIS_TYPE": 0, "CLASSIFICATION_TYPE": "U", "NORAD_CAT_ID": 38492, "ELEMENT_SET_NO": 999, "REV_AT_EPOCH": 55519, "BSTAR": 0.0058484062, "MEAN_MOTION_DOT": 9.486e-05, "MEAN_MOTION_DDOT": 0}, "tle": {"line1": "1 38492U 99025ESB 25311.93371086  .00009486  00000+0  58484-2 0  9997", "line2": "2 38492  98.6097  26.0841 0233457 245.4391 112.2279 13.93045648555192"}}, "geometry": {"type": "Point", "coordinates": [43.13747661776488, 39.24245152603654]}}, {"type": "Feature", "properties": {"norad_id": 38493, "name": "FENGYUN 1C DEB", "group": "fengyun-1c-debris", "lat": 50.2919043606314, "lon": -73.25208279326594, "alt_km": 1269.6638448251178, "timestamp": "2025-12-03T20:47:58.514048+00:00", "meta": {"OBJECT_NAME": "FENGYUN 1C DEB", "OBJECT_ID": "1999-025ESC", "EPOCH": "2025-12-02T14:34:29.911296", "MEAN_MOTION": 13.62300089, "ECCENTRICITY": 0.04265045, "INCLINATION": 99.0775, "RA_OF_ASC_NODE": 296.6706, "ARG_OF_PERICENTER": 271.5685, "MEAN_ANOMALY": 83.6659, "EPHEMERIS_TYPE": 0, "CLASSIFICATION_TYPE": "U", "NORAD_CAT_ID": 38493, "ELEMENT_SET_NO": 999, "REV_AT_EPOCH": 56360, "BSTAR": 0.00057752132, "MEAN_MOTION_DOT": 7.81e-06, "MEAN_MOTION_DDOT": 0}, "tle": {"line1": "1 38493U 99025ESC 25336.60729064  .00000781  00000+0  57752-3 0  9999", "line2": "2 38493  99.0775 296.6706 0426504 271.5685  83.6659 13.62300089563606"}}, "geometry": {"type": "Point", "coordinates": [-73.25208279326594, 50.2919043606314]}}, {"type": "Feature", "properties": {"norad_id": 38494, "name": "FENGYUN 1C DEB", "group": "fengyun-1c-debris", "lat": -58.49167372388072, "lon": -57.26043326099962, "alt_km": 908.3189189473205, "timestamp": "2025-12-03T20:47:58.514058+00:00", "meta": {"OBJECT_NAME": "FENGYUN 1C DEB", "OBJECT_ID": "1999-025ESD", "EPOCH": "2025-11-30T02:08:48.245856", "MEAN_MOTION": 13.99599294, "ECCENTRICITY": 0.0387254, "INCLINATION": 98.433, "RA_OF_ASC_NODE": 285.2437, "ARG_OF_PERICENTER": 44.6936, "MEAN_ANOMALY": 318.476, "EPHEMERIS_TYPE": 0, "CLASSIFICATION_TYPE": "U", "NORAD_CAT_ID": 38494, "ELEMENT_SET_NO": 999, "REV_AT_EPOCH": 6977, "BSTAR": 0.0054391, "MEAN_MOTION_DOT": 0.00015208, "MEAN_MOTION_DDOT": 0}, "tle": {"line1": "1 38494U 99025ESD 25334.08944729  .00015208  00000+0  54391-2 0  9992", "line2": "2 38494  98.4330 285.2437 0387254  44.6936 318.4760 13.99599294 69777"}}, "geometry": {"type": "Point", "coordinates": [-57.26043326099962, -58.49167372388072]}}, {"type": "Feature", "properties": {"norad_id": 38495, "name": "FENGYUN 1C DEB", "group": "fengyun-1c-debris", "lat": -25.41849624972024, "lon": -0.9674080763160638, "alt_km": 1193.0633291021168, "timestamp": "2025-12-03T20:47:58.514068+00:00", "meta": {"OBJECT_NAME": "FENGYUN 1C DEB", "OBJECT_ID": "1999-025ESE", "EPOCH": "2025-12-02T06:20:41.771904", "MEAN_MOTION": 13.69106573, "ECCENTRICITY": 0.0252581, "INCLINATION": 99.1709, "RA_OF_ASC_NODE": 353.1036, "ARG_OF_PERICENTER": 165.9119, "MEAN_ANOMALY": 194.9245, "EPHEMERIS_TYPE": 0, "CLASSIFICATION_TYPE": "U", "NORAD_CAT_ID": 38495, "ELEMENT_SET_NO": 999, "REV_AT_EPOCH": 60969, "BSTAR": 0.0025866, "MEAN_MOTION_DOT": 2.759e-05, "MEAN_MOTION_DDOT": 0}, "tle": {"line1": "1 38495U 99025ESE 25336.26437236  .00002759  00000+0  25866-2 0  9997", "line2": "2 38495  99.1709 353.1036 0252581 165.9119 194.9245 13.69106573609697"}}, "geometry": {"type": "Point", "coordinates": [-0.9674080763160638, -25.41849624972024]}}, {"type": "Feature", "properties": {"norad_id": 38496, "name": "FENGYUN 1C DEB", "group": "fengyun-1c-debris", "lat": -53.52328344990411, "lon": 155.7842171025887, "alt_km": 918.2744200235848, "timestamp": "2025-12-03T20:47:58.514079+00:00", "meta": {"OBJECT_NAME": "FENGYUN 1C DEB", "OBJECT_ID": "1999-025ESF", "EPOCH": "2025-12-02T19:50:53.821248", "MEAN_MOTION": 14.09951283, "ECCENTRICITY": 0.00773026, "INCLINATION": 98.7623, "RA_OF_ASC_NODE": 346.8127, "ARG_OF_PERICENTER": 35.254, "MEAN_ANOMALY": 325.371, "EPHEMERIS_TYPE": 0, "CLASSIFICATION_TYPE": "U", "NORAD_CAT_ID": 38496, "ELEMENT_SET_NO": 999, "REV_AT_EPOCH": 80881, "BSTAR": 0.0012363442, "MEAN_MOTION_DOT": 2.198e-05, "MEAN_MOTION_DDOT": 0}, "tle": {"line1": "1 38496U 99025ESF 25336.82701182  .00002198  00000+0  12363-2 0  9999", "line2": "2 38496  98.7623 346.8127 0077302  35.2540 325.3710 14.09951283808814"}}, "geometry": {"type": "Point", "coordinates": [155.7842171025887, -53.52328344990411]}}, {"type": "Feature", "properties": {"norad_id": 38498, "name": "FENGYUN 1C DEB", "group": "fengyun-1c-debris", "lat": 65.25498776233677, "lon": -22.68442604324075, "alt_km": 879.2627302052033, "timestamp": "2025-12-03T20:47:58.514089+00:00", "meta": {"OBJECT_NAME": "FENGYUN 1C DEB", "OBJECT_ID": "1999-025ESH", "EPOCH": "2025-12-02T07:26:08.627712", "MEAN_MOTION": 12.96587855, "ECCENTRICITY": 0.05567868, "INCLINATION": 99.6992, "RA_OF_ASC_NODE": 357.7083, "ARG_OF_PERICENTER": 95.9018, "MEAN_ANOMALY": 270.5803, "EPHEMERIS_TYPE": 0, "CLASSIFICATION_TYPE": "U", "NORAD_CAT_ID": 38498, "ELEMENT_SET_NO": 999, "REV_AT_EPOCH": 53608, "BSTAR": 0.0021056117, "MEAN_MOTION_DOT": 1.199e-05, "MEAN_MOTION_DDOT": 0}, "tle": {"line1": "1 38498U 99025ESH 25336.30982208  .00001199  00000+0  21056-2 0  9993", "line2": "2 38498  99.6992 357.7083 0556786  95.9018 270.5803 12.96587855536083"}}, "geometry": {"type": "Point", "coordinates": [-22.68442604324075, 65.25498776233677]}}]}